SL-8 R/B                
1 15483U 85006B   26155.22164234  .00000323  00000+0  11559-3 0  9994
2 15483  74.0449 101.9222 0018414 351.5280 112.1746 14.37828874166467
SL-12 R/B(2)            
1 15772U 85042D   26154.66343726  .00000110  00000+0  70829-4 0  9997
2 15772  71.1086 266.0874 0035522 348.3603 110.8497 14.22003233126610
SL-14 R/B               
1 15945U 85069B   26154.90845864  .00000482  00000+0  51617-4 0  9991
2 15945  82.5262 303.8553 0017230 266.4790  93.4456 14.86504675185646
SL-16 R/B               
1 16182U 85097B   26155.70280567  .00000134  00000+0  91305-4 0  9990
2 16182  71.0036 317.3620 0005841 136.4219 305.9338 14.16611618 99557
SL-14 R/B               
1 16496U 86006B   26155.13120736  .00000678  00000+0  69208-4 0  9997
2 16496  82.5264 178.3997 0075978 347.2925  12.6373 14.86932225162055
COSMOS 1743             
1 16719U 86034A   26154.98642417  .00046451  00000+0  45836-3 0  9992
2 16719  82.5276 342.7560 0003515 335.3214  24.7877 15.65721268193728
SL-14 R/B               
1 16792U 86046B   26155.08670762  .00000438  00000+0  47586-4 0  9992
2 16792  82.4818 358.5557 0021808 304.6785  55.2376 14.85662252139235
SL-14 R/B               
1 16882U 86055B   26155.75290880  .00000497  00000+0  54292-4 0  9992
2 16882  82.5213  44.8229 0020032  47.3468  13.7686 14.85714245132295
AJISAI (EGS)            
1 16908U 86061A   26155.92988413 -.00000092  00000+0  40869-4 0  9990
2 16908  50.0064 185.0874 0011280 149.5369 284.6393 12.44516755478861
SL-14 R/B               
1 17567U 87024B   26155.69469471  .00000441  00000+0  47355-4 0  9998
2 17567  82.5286  10.9938 0017567 337.2574  22.7862 14.86204937101054
COSMOS 1833             
1 17589U 87027A   26155.22451942  .00000258  00000+0  16347-3 0  9990
2 17589  70.9147 144.1160 0022501  76.7560 283.6069 14.13040466 22544
SL-16 R/B               
1 17590U 87027B   26155.22863734  .00000196  00000+0  12098-3 0  9998
2 17590  71.0024  94.1349 0005849 327.8198  32.2568 14.17169977 27605
SL-14 R/B               
1 17912U 87038B   26155.66697388  .00000419  00000+0  45727-4 0  9990
2 17912  82.5018 214.8649 0017957 234.3510 125.6034 14.85437745 92142
COSMOS 1844             
1 17973U 87041A   26155.23720840 -.00000042  00000+0  32059-5 0  9992
2 17973  70.8992 211.6221 0033289 254.1046 105.6406 14.14570107 15824
SL-14 R/B               
1 18153U 87055B   26154.28173471  .00000528  00000+0  57773-4 0  9991
2 18153  82.4994 268.3368 0022182  90.7225 269.6533 14.85700189 82649
COSMOS 1867             
1 18187U 87060A   26155.13908757 -.00000031  00000+0  26129-4 0  9993
2 18187  65.0113  64.6001 0016200 281.9584  77.9684 14.31514326 32316
SL-14 R/B               
1 18749U 88001B   26154.28278350  .00000522  00000+0  57508-4 0  9996
2 18749  82.5122 114.8544 0016970 319.4199  40.5751 14.85598562 54731
COSMOS 1933             
1 18958U 88020A   26155.12327309  .00003776  00000+0  18103-3 0  9993
2 18958  82.5113 165.3713 0002255 246.5845 113.5152 15.18626787 63342
SL-3 R/B                
1 19046U 88032B   26155.80747660  .00004833  00000+0  22123-3 0  9998
2 19046  97.5253 138.8621 0023779 291.6060  68.2642 15.20742471 65343
SL-16 R/B               
1 19120U 88039B   26155.64905615  .00000115  00000+0  77224-4 0  9998
2 19120  71.0151 244.6694 0022947 211.5710 148.4040 14.19628078970728
COSMOS 1953             
1 19210U 88050A   26155.72235273  .00008337  00000+0  28731-3 0  9998
2 19210  82.5084  70.6010 0011083 165.7673 194.3882 15.29797469 51082
SL-8 R/B                
1 19257U 88053B   26154.58928132  .00000307  00000+0  10792-3 0  9995
2 19257  74.0476 314.1234 0019338 114.4979 314.5681 14.38961756988958
COSMOS 1975             
1 19573U 88093A   26155.72190923  .00008614  00000+0  30285-3 0  9994
2 19573  82.5197  30.2392 0010113 216.5991 143.4559 15.29159887 32705
SL-14 R/B               
1 19574U 88093B   26155.07796931  .00000505  00000+0  55138-4 0  9990
2 19574  82.5303 320.9536 0022103 110.8783 339.8809 14.85731101 13840
SL-16 R/B               
1 19650U 88102B   26155.71487681  .00000104  00000+0  76649-4 0  9991
2 19650  71.0003 328.3828 0016195 241.9743 117.9743 14.16166247939214
INTERCOSMOS 24          
1 20261U 89080A   26155.70568576  .00001002  00000+0  28574-3 0  9990
2 20261  82.6076  47.7647 1188297  90.8415 282.8696 12.59641589677753
SL-14 R/B               
1 20262U 89080C   26154.32298116  .00000570  00000+0  16948-3 0  9999
2 20262  82.5912 118.2136 1229574 349.1174   8.5361 12.50560014670855
DELTA 1 R/B             
1 20323U 89089B   26155.11436352  .00000421  00000+0  11277-3 0  9995
2 20323  97.0639 348.7641 0068139 208.3686 151.3796 14.50722446908261
ARIANE 40 R/B           
1 20443U 90005H   26155.74523868  .00000310  00000+0  11203-3 0  9992
2 20443  98.2964 213.7475 0008969 307.0894  52.9475 14.39920793905334
DELTA 2 R/B(1)          
1 20453U 90008B   26154.88182397  .00082628  00000+0  65995-3 0  9997
2 20453  35.6007 324.5326 0068452 348.4901  11.4272 15.66729269939614
